[{"OBJECT_NAME":"KUIPER-00033","OBJECT_ID":"2025-088Y","EPOCH":"2026-03-09T08:27:15.717600","MEAN_MOTION":14.83473272,"ECCENTRICITY":0.00010258,"INCLINATION":51.8992,"RA_OF_ASC_NODE":127.3567,"ARG_OF_PERICENTER":44.0483,"MEAN_ANOMALY":316.0562,"EPHEMERIS_TYPE":0,"CLASSIFICATION_TYPE":"U","NORAD_CAT_ID":63746,"ELEMENT_SET_NO":999,"REV_AT_EPOCH":4756,"BSTAR":0.00069892366,"MEAN_MOTION_DOT":5.577e-5,"MEAN_MOTION_DDOT":0},{"OBJECT_NAME":"SL-14 R\/B","OBJECT_ID":"1991-042B","EPOCH":"2026-03-09T21:25:37.354080","MEAN_MOTION":14.81829845,"ECCENTRICITY":0.00157979,"INCLINATION":82.4923,"RA_OF_ASC_NODE":219.9918,"ARG_OF_PERICENTER":237.9189,"MEAN_ANOMALY":122.0492,"EPHEMERIS_TYPE":0,"CLASSIFICATION_TYPE":"U","NORAD_CAT_ID":21423,"ELEMENT_SET_NO":999,"REV_AT_EPOCH":85310,"BSTAR":7.8975647e-5,"MEAN_MOTION_DOT":6.48e-6,"MEAN_MOTION_DDOT":0}]
